# From MPC106342
C/1995 O1 (Hale-Bopp),e,89.1287,283.0669,130.4538,177.7771,0.0004158,0.99496330,0.0000,03/29.7391/1997,2000,g -2.0,4.0
# From MPC 27287
C/1996 B2 (Hyakutake),e,125.6190,186.8092,129.3947,1518,0.0000167,0.99985058,0.0000,04/20.1849/1996,2000,g 10.0,4.0
# From NK 1615
P/1996 R2 (Lagerkvist),e,2.6006,40.0145,333.3426,3.774884,0.1343843,0.31436408,135.8464,11/19.0/2021,2000,g 11.5,4.0
# From MPC 30063
P/1997 B1 (Kobayashi),e,12.3395,328.8817,183.3229,8.580462,0.0392137,0.76036701,354.9131,11/19.0/2021,2000,g 15.0,2.0
# From MPC 75703
P/1998 VS24 (LINEAR),e,5.0264,159.0383,244.6046,4.527288,0.1023168,0.24257788,143.2870,11/19.0/2021,2000,g 13.0,2.0
# From NK 731
P/1999 RO28 (LONEOS),e,7.5672,137.8851,231.2674,3.426655,0.1553812,0.67236383,136.2012,11/19.0/2021,2000,g 20.0,2.0
# From MPC 75704
P/1999 XN120 (Catalina),e,5.0297,285.2963,161.7782,4.178959,0.1153724,0.21024465,187.3554,11/19.0/2021,2000,g 13.5,2.0
# From NK 744
P/2000 R2 (LINEAR),e,11.6871,160.2856,176.5579,3.467031,0.1526749,0.53160190,135.1726,11/19.0/2021,2000,g 18.0,4.0
# From MPC 43019
P/2001 H5 (NEAT),e,8.3669,328.6836,224.8209,6.097298,0.0654633,0.59828043,145.6522,11/19.0/2021,2000,g 12.0,4.0
# From MPC 75704
P/2001 Q6 (NEAT),e,56.9107,22.1714,42.9288,7.955080,0.0439276,0.82309694,323.4685,11/19.0/2021,2000,g 13.5,4.0
# From MPC 47727
P/2002 EJ57 (LINEAR),e,4.9763,330.3240,167.3358,6.468136,0.0599150,0.59230975,74.9116,11/19.0/2021,2000,g 12.5,4.0
# From MPC109588
P/2002 T6 (NEAT-LINEAR),e,10.8412,206.1856,219.6616,7.696195,0.0461626,0.56117100,314.9695,11/19.0/2021,2000,g 10.5,4.0
# From MPC 75007
C/2002 VQ94 (LINEAR),e,70.6396,35.0861,100.0828,184.6552,0.0003928,0.96304313,2.2681,11/19.0/2021,2000,g  9.5,2.0
# From MPC 50354
P/2003 F2 (NEAT),e,11.6075,359.0154,192.1874,6.502006,0.0594474,0.54203764,43.8317,11/19.0/2021,2000,g 16.5,2.0
# From MPC 50139
P/2003 QX29 (NEAT),e,11.3907,264.5510,37.5557,8.023608,0.0433660,0.47291322,301.2071,11/19.0/2021,2000,g  8.5,4.0
# From MPC105235
P/2003 T12 (SOHO),e,11.0212,174.5810,219.7483,2.585816,0.2370324,0.76988480,132.9826,11/19.0/2021,2000,g 17.0,4.0
# From MPC 82312
P/2004 A1 (LONEOS),e,10.5517,124.8512,21.2171,7.964489,0.0438498,0.30942960,277.1979,11/19.0/2021,2000,g  6.5,4.0
# From MPC 54558
P/2004 DO29 (Spacewatch-LINEAR),e,14.5324,147.3720,40.6204,7.288339,0.0500912,0.44109843,313.4957,11/19.0/2021,2000,g 13.5,2.0
# From MPC 54823
P/2004 FY140 (LINEAR),e,2.1348,326.7657,242.3190,4.904544,0.0907415,0.16803011,209.8647,11/19.0/2021,2000,g 12.5,2.0
# From MPC 53304
P/2004 R3 (LINEAR-NEAT),e,12.7896,305.4142,37.8912,4.780830,0.0942864,0.25803446,5.4217,11/19.0/2021,2000,g 14.5,4.0
# From MPC 55521
P/2004 V3 (Siding Spring),e,50.4431,356.1280,322.3983,7.137244,0.0516902,0.44624903,322.0865,11/19.0/2021,2000,g 11.5,4.0
# From MPC 75705
P/2004 V5 (LINEAR-Hill),e,19.3403,47.7900,87.6500,7.982593,0.0437007,0.44382045,268.3503,11/19.0/2021,2000,g  8.0,4.0
# From MPC 54164
P/2005 E1 (Tubbiolo),e,4.2637,335.5683,193.9987,7.043403,0.0527267,0.37519709,324.1892,11/19.0/2021,2000,g 10.0,4.0
# From MPC 54823
P/2005 GF8 (LONEOS),e,1.1867,314.6414,284.5922,5.814455,0.0702976,0.51711734,55.0975,11/19.0/2021,2000,g 11.5,4.0
# From MPC 79019
P/2005 J1 (McNaught),e,31.7544,268.8188,338.9581,3.570936,0.1460599,0.56939238,165.5968,11/19.0/2021,2000,g 16.5,4.0
# From MPC 74246
P/2005 L1 (McNaught),e,7.7385,138.2482,149.7456,3.977473,0.1242491,0.20989913,2.0092,11/19.0/2021,2000,g  9.5,4.0
# From MPC 75706
P/2005 S2 (Skiff),e,3.1357,161.2174,229.2178,8.011979,0.0434605,0.19784617,246.3670,11/19.0/2021,2000,g  7.5,4.0
# From MPC 75706
P/2005 SB216 (LONEOS),e,24.0964,1.1611,83.3239,7.136126,0.0517024,0.46400565,281.3979,11/19.0/2021,2000,g 12.0,2.0
# From MPC 55717
P/2005 T2 (Christensen),e,8.2907,260.1606,58.8705,3.847568,0.1305944,0.41630891,76.9908,11/19.0/2021,2000,g 14.5,4.0
# From MPC 73461
P/2005 T3 (Read),e,6.2236,27.7023,6.7331,7.585050,0.0471809,0.17477606,278.2977,11/19.0/2021,2000,g  9.0,4.0
# From MPC 73461
P/2005 T4 (SWAN),e,160.2350,25.8197,41.7266,9.361040,0.0344126,0.92970728,202.7432,11/19.0/2021,2000,g 15.0,4.0
# From MPC 75706
P/2005 T5 (Broughton),e,21.3677,56.9998,304.6076,7.286930,0.0501057,0.55250776,294.7050,11/19.0/2021,2000,g 11.0,4.0
# From MPC 75706
P/2005 Y2 (McNaught),e,19.0466,94.3157,193.8222,6.365035,0.0613766,0.46951484,24.3239,11/19.0/2021,2000,g  9.0,4.0
# From MPC 56954
P/2006 F4 (Spacewatch),e,12.4373,183.8230,30.8111,3.518282,0.1493510,0.34088133,125.3825,11/19.0/2021,2000,g 15.0,4.0
# From MPC 75707
P/2006 HR30 (Siding Spring),e,31.8361,309.8873,117.3077,7.810718,0.0451510,0.84257555,246.3267,11/19.0/2021,2000,g 11.0,4.0
# From MPC 75707
P/2007 A2 (Christensen),e,26.4875,300.9095,186.7146,6.331261,0.0618684,0.55796436,336.7914,11/19.0/2021,2000,g 13.5,4.0
# From MPC 75707
P/2007 C2 (Catalina),e,8.6231,275.4332,180.1030,6.993375,0.0532935,0.47136373,275.4267,11/19.0/2021,2000,g 10.0,4.0
# From MPC 84315
C/2007 D1 (LINEAR),e,41.5017,171.2272,339.9396,1315,0.0000207,0.99330089,0.0000,06/07.6179/2007,2000,g  3.5,4.0
# From MPC 82314
P/2007 K2 (Gibbs),e,7.6294,188.6383,347.4093,7.268702,0.0502943,0.68296268,266.0376,11/19.0/2021,2000,g 14.0,4.0
# From MPC 60925
P/2007 Q2 (Gilmore),e,10.2026,172.1566,162.7995,5.654066,0.0733099,0.67012822,26.1723,11/19.0/2021,2000,g 16.0,4.0
# From MPC 73462
P/2007 S1 (Zhao),e,5.9641,141.3700,245.4431,3.820295,0.1319954,0.33970312,317.4095,11/19.0/2021,2000,g 13.0,4.0
# From MPC 61994
P/2007 T2 (Kowalski),e,9.7511,3.3761,359.6453,3.046548,0.1853497,0.78554528,224.9618,11/19.0/2021,2000,g 18.5,4.0
# From MPC 75709
P/2008 L2 (Hill),e,25.8662,218.0133,141.2411,6.027726,0.0665999,0.61331577,324.1650,11/19.0/2021,2000,g 12.5,4.0
# From MPC 64114
P/2008 O3 (Boattini),e,32.2949,47.5767,341.1209,8.219178,0.0418275,0.69584684,205.9672,11/19.0/2021,2000,g 13.0,4.0
# From MPC 66204
P/2008 WZ96 (LINEAR),e,7.1117,56.4457,341.9419,3.486983,0.1513664,0.46981637,12.7443,11/19.0/2021,2000,g 13.5,4.0
# From MPC 75710
P/2008 Y3 (McNaught),e,38.7712,262.8197,238.1453,8.047574,0.0431724,0.44547858,203.6785,11/19.0/2021,2000,g  8.5,4.0
# From MPC 75710
P/2009 B1 (Boattini),e,22.2240,297.0853,128.8764,6.737459,0.0563586,0.63511461,264.9972,11/19.0/2021,2000,g 13.0,4.0
# From MPC 66466
C/2009 G1 (STEREO),e,108.6796,120.4696,175.4571,448.7685,0.0001037,0.99746329,0.0000,04/16.7621/2009,2000,g  9.0,4.0
# From MPC 75710
P/2009 O3 (Hill),e,16.2817,183.6926,154.4494,7.768116,0.0455230,0.68787561,207.6203,11/19.0/2021,2000,g 12.5,4.0
# From MPC 68902
P/2009 Q5 (McNaught),e,40.9888,160.2803,209.0483,7.433779,0.0486284,0.60940727,216.6368,11/19.0/2021,2000,g 10.0,4.0
# From MPC112389
P/2009 T2 (La Sagra),e,27.5809,215.8513,216.3551,7.721818,0.0459330,0.76572464,199.5482,11/19.0/2021,2000,g 14.0,4.0
# From MPC105235
P/2009 WX51 (Catalina),e,9.5935,31.6379,118.1633,3.082019,0.1821592,0.74006152,66.9802,11/19.0/2021,2000,g 19.0,2.0
# From MPC 74247
P/2009 Y2 (Kowalski),e,29.9426,262.0296,172.1344,6.550248,0.0587919,0.63627165,251.7976,11/19.0/2021,2000,g 13.0,4.0
# From MPC 75711
P/2010 A3 (Hill),e,14.8264,63.7703,42.1944,6.080969,0.0657272,0.73357048,280.5110,11/19.0/2021,2000,g 14.0,4.0
# From MPC 75008
P/2010 C1 (Scotti),e,9.1282,141.8862,3.5741,7.103994,0.0520535,0.25916754,228.6971,11/19.0/2021,2000,g  9.5,4.0
# From MPC 75008
P/2010 D2 (WISE),e,57.0878,319.8893,119.9972,6.718363,0.0565990,0.45115475,243.3849,11/19.0/2021,2000,g 16.0,4.0
# From MPC 75009
P/2010 E2 (Jarnac),e,15.3893,177.8217,8.3458,8.639832,0.0388102,0.71962957,165.0463,11/19.0/2021,2000,g 14.0,4.0
# From MPC 72851
P/2010 H2 (Vales),e,14.2754,64.1927,128.0620,3.833127,0.1313331,0.19605093,201.3096,11/19.0/2021,2000,g  6.0,4.0
# From MPC 70361
P/2010 H3 (SOHO),e,23.0654,77.0857,26.1600,3.037133,0.1862123,0.98535727,0.0000,02/07.9436/2021,2000,g 20.0,2.0
# From MPC 73463
P/2010 H4 (Scotti),e,2.3181,44.7333,179.4785,6.594567,0.0582002,0.26671666,243.0040,11/19.0/2021,2000,g 10.5,4.0
# From MPC 74637
P/2010 H5 (Scotti),e,14.0601,24.8001,175.0502,7.165407,0.0513858,0.15282434,218.5000,11/19.0/2021,2000,g 13.0,2.0
# From MPC 98558
P/2010 J3 (McMillan),e,13.2802,106.4327,157.6001,8.975632,0.0366527,0.72645540,150.2883,11/19.0/2021,2000,g 11.0,4.0
# From MPC 84315
P/2010 JC81 (WISE),e,38.7814,30.8562,12.4239,8.108134,0.0426897,0.77735523,164.9803,11/19.0/2021,2000,g  9.0,4.0
# From MPC 74248
P/2010 T2 (PANSTARRS),e,7.8900,58.7597,353.1346,5.541957,0.0755456,0.32188326,295.6013,11/19.0/2021,2000,g 11.5,4.0
# From MPC 98558
P/2010 TO20 (LINEAR-Grauer),e,2.4789,43.2909,267.0291,5.831666,0.0699866,0.05530904,334.2064,11/19.0/2021,2000,g  9.0,4.0
# From MPC 82316
P/2010 U1 (Boattini),e,8.2164,280.6983,86.0539,6.506965,0.0593795,0.24876275,256.0329,11/19.0/2021,2000,g  9.5,4.0
# From MPEC 2021-R75
C/2010 U3 (Boattini),e,55.5374,43.0098,88.0438,2389,0.0000084,0.99646514,0.0000,02/25.2363/2019,2000,g  1.0,4.0
# From MPC 79021
P/2010 UH55 (Spacewatch),e,8.0399,232.9285,225.1584,6.653778,0.0574251,0.56340502,222.7071,11/19.0/2021,2000,g 11.0,4.0
# From MPC 75009
P/2010 WK (LINEAR),e,11.4015,11.3311,40.9653,5.761972,0.0712602,0.69017047,290.4693,11/19.0/2021,2000,g 14.5,2.0
# From MPC 84021
P/2011 C2 (Gibbs),e,10.8853,12.1235,160.7816,7.413401,0.0488290,0.26889108,176.5521,11/19.0/2021,2000,g  9.0,4.0
# From MPC 79866
P/2011 FR143 (Lemmon),e,15.9778,190.9502,350.0422,6.860566,0.0548484,0.45051657,215.0179,11/19.0/2021,2000,g 14.0,2.0
# From MPC 82317
P/2011 JB15 (Spacewatch-Boattini),e,19.1477,153.5797,111.0729,7.360189,0.0493595,0.31704620,177.1631,11/19.0/2021,2000,g  9.0,4.0
# From MPC 87913
P/2011 N1 (ASH),e,35.7385,77.5874,330.3458,6.247542,0.0631161,0.54440828,219.0174,11/19.0/2021,2000,g 11.5,4.0
# From MPC 75714
P/2011 NO1 (Elenin),e,15.2468,295.8119,263.7591,5.526914,0.0758543,0.77455368,300.2165,11/19.0/2021,2000,g 15.0,4.0
# From MPC 82318
P/2011 P1 (McNaught),e,5.6609,4.2368,348.9845,7.463844,0.0483348,0.32773779,199.8178,11/19.0/2021,2000,g  9.0,4.0
# From MPC 77806
